NORAD_CAT_ID,OBJECT_NAME,OBJECT_TYPE,EPOCH,MEAN_MOTION,ECCENTRICITY,INCLINATION,RA_OF_ASC_NODE,ARG_OF_PERICENTER,MEAN_ANOMALY,BSTAR,MEAN_MOTION_DOT,MEAN_MOTION_DDOT,TLE_LINE0,TLE_LINE1,TLE_LINE2,SEMIMAJOR_AXIS,PERIOD,APOGEE,PERIGEE,DECAYED
50156.0,STARLINK-3317,PAYLOAD,2023-02-18 12:48:29,15.08838963,0.0001201,53.2125,215.2534,83.5467,276.5662,0.00048787,7.485e-05,0.0,0 STARLINK-3317,1 50156U 21125A   23049.53367865  .00007485  00000-0  48787-3 0  9990,2 50156  53.2125 215.2534 0001201  83.5467 276.5662 15.08838963 68285,6917.884,95.438,540.579,538.918,0.0
50156.0,STARLINK-3317,PAYLOAD,2023-02-19 14:14:39,15.0884335,0.000118,53.2132,210.4952,88.0683,272.0444,0.00031043,4.657e-05,0.0,0 STARLINK-3317,1 50156U 21125A   23050.59351844  .00004657  00000-0  31043-3 0  9993,2 50156  53.2132 210.4952 0001180  88.0683 272.0444 15.08843350 68443,6917.87,95.437,540.551,538.919,0.0
50156.0,STARLINK-3317,PAYLOAD,2023-02-19 15:50:03,15.08845242,0.0001214,53.2132,210.1979,83.7498,276.3633,0.00046121,7.061e-05,0.0,0 STARLINK-3317,1 50156U 21125A   23050.65975820  .00007061  00000-0  46121-3 0  9991,2 50156  53.2132 210.1979 0001214  83.7498 276.3633 15.08845242 67935,6917.864,95.437,540.569,538.89,0.0
50156.0,STARLINK-3317,PAYLOAD,2023-02-20 14:05:27,15.08846935,0.0001352,53.2136,206.0346,80.1745,279.94,0.00036646,5.55e-05,0.0,0 STARLINK-3317,1 50156U 21125A   23051.58711823  .00005550  00000-0  36646-3 0  9997,2 50156  53.2136 206.0346 0001352  80.1745 279.9400 15.08846935 68077,6917.859,95.437,540.659,538.789,0.0
50156.0,STARLINK-3317,PAYLOAD,2023-02-20 18:51:36,15.08854163,0.0001212,53.2139,205.143,83.8722,276.2408,0.00050453,7.754e-05,0.0,0 STARLINK-3317,1 50156U 21125A   23051.78583564  .00007754  00000-0  50453-3 0  9998,2 50156  53.2139 205.1430 0001212  83.8722 276.2408 15.08854163 68625,6917.837,95.437,540.541,538.864,0.0
50156.0,STARLINK-3317,PAYLOAD,2023-02-21 18:42:23,15.08852841,0.0001229,53.2137,200.6822,79.9536,280.1595,0.00041368,6.304e-05,0.0,0 STARLINK-3317,1 50156U 21125A   23052.77943388  .00006304  00000-0  41368-3 0  9997,2 50156  53.2137 200.6822 0001229  79.9536 280.1595 15.08852841 68256,6917.841,95.437,540.556,538.856,0.0
50156.0,STARLINK-3317,PAYLOAD,2023-02-21 20:17:46,15.08858802,0.0001212,53.2138,200.3845,82.968,277.145,0.00058715,9.074e-05,0.0,0 STARLINK-3317,1 50156U 21125A   23052.84567224  .00009074  00000-0  58715-3 0  9997,2 50156  53.2138 200.3845 0001212  82.9680 277.1450 15.08858802 68782,6917.823,95.436,540.526,538.849,0.0
50156.0,STARLINK-3317,PAYLOAD,2023-02-22 02:39:18,15.08841123,0.0001548,53.214,199.1951,85.0287,275.0882,5.0588e-05,5.17e-06,0.0,0 STARLINK-3317,1 50156U 21125A   23053.11063514  .00000517  00000-0  50588-4 0  9995,2 50156  53.2140 199.1951 0001548  85.0287 275.0882 15.08841123 68309,6917.877,95.437,540.813,538.671,0.0
50156.0,STARLINK-3317,PAYLOAD,2023-02-22 18:33:10,15.08842301,0.000105,53.2138,196.221,92.9763,267.1349,0.00013263,1.824e-05,0.0,0 STARLINK-3317,1 50156U 21125A   23053.77303370  .00001824  00000-0  13263-3 0  9994,2 50156  53.2138 196.2210 0001050  92.9763 267.1349 15.08842301 68923,6917.873,95.437,540.465,539.012,0.0
50156.0,STARLINK-3317,PAYLOAD,2023-02-23 02:30:06,15.08829422,7.9e-05,53.215,194.7338,88.4112,271.697,-0.00020403,-3.532e-05,0.0,0 STARLINK-3317,1 50156U 21125A   23054.10423777 -.00003532  00000-0 -20403-3 0  9990,2 50156  53.2150 194.7338 0000790  88.4112 271.6970 15.08829422 68456,6917.913,95.438,540.324,539.231,0.0
50156.0,STARLINK-3317,PAYLOAD,2023-02-23 08:51:38,15.08828172,7.26e-05,53.2146,193.5442,74.3691,285.7381,-0.00030841,-5.191e-05,0.0,0 STARLINK-3317,1 50156U 21125A   23054.36919230 -.00005191  00000-0 -30841-3 0  9992,2 50156  53.2146 193.5442 0000726  74.3691 285.7381 15.08828172 69015,6917.917,95.438,540.284,539.279,0.0
50156.0,STARLINK-3317,PAYLOAD,2023-02-23 16:48:34,15.088454,0.0001433,53.2132,192.0581,86.3575,273.7581,0.00013716,1.896e-05,0.0,0 STARLINK-3317,1 50156U 21125A   23054.70039660  .00001896  00000-0  13716-3 0  9998,2 50156  53.2132 192.0581 0001433  86.3575 273.7581 15.08845400 68547,6917.864,95.437,540.72,538.738,0.0
50156.0,STARLINK-3317,PAYLOAD,2023-02-24 02:20:53,15.08828961,7.79e-05,53.2135,190.2735,111.3547,248.7528,-0.00012296,-2.243e-05,0.0,0 STARLINK-3317,1 50156U 21125A   23055.09783984 -.00002243  00000-0 -12296-3 0  9997,2 50156  53.2135 190.2735 0000779 111.3547 248.7528 15.08828961 68604,6917.914,95.438,540.318,539.24,0.0
50156.0,STARLINK-3317,PAYLOAD,2023-02-24 11:53:12,15.08831447,0.0001357,53.2149,188.4881,109.66,250.4538,-7.7735e-05,-1.525e-05,0.0,0 STARLINK-3317,1 50156U 21125A   23055.49528269 -.00001525  00000-0 -77735-4 0  9996,2 50156  53.2149 188.4881 0001357 109.6600 250.4538 15.08831447 69181,6917.907,95.438,540.71,538.833,0.0
50156.0,STARLINK-3317,PAYLOAD,2023-02-24 16:39:21,15.0884606,0.0001237,53.2137,187.5979,95.7966,264.3167,0.00063236,9.792e-05,0.0,0 STARLINK-3317,1 50156U 21125A   23055.69400053  .00009792  00000-0  63236-3 0  9990,2 50156  53.2137 187.5979 0001237  95.7966 264.3167 15.08846060 68697,6917.862,95.437,540.583,538.871,0.0
50156.0,STARLINK-3317,PAYLOAD,2023-02-24 19:50:08,15.08847476,0.0001291,53.2137,187.0035,92.6813,267.4327,0.0013367,0.00021054,0.0,0 STARLINK-3317,1 50156U 21125A   23055.82648156  .00021054  00000-0  13367-2 0  9997,2 50156  53.2137 187.0035 0001291  92.6813 267.4327 15.08847476 69237,6917.858,95.437,540.616,538.829,0.0
50156.0,STARLINK-3317,PAYLOAD,2023-02-25 02:11:40,15.08834801,0.0001214,53.2138,185.8138,97.4105,262.7025,0.00068705,0.00010662,0.0,0 STARLINK-3317,1 50156U 21125A   23056.09144526  .00010662  00000-0  68705-3 0  9999,2 50156  53.2138 185.8138 0001214  97.4105 262.7025 15.08834801 68757,6917.896,95.438,540.601,538.921,0.0
50156.0,STARLINK-3317,PAYLOAD,2023-02-25 13:19:23,15.08839642,0.0001398,53.2135,183.7321,107.5848,252.5297,0.0011815,0.00018565,0.0,0 STARLINK-3317,1 50156U 21125A   23056.55512808  .00018565  00000-0  11815-2 0  9991,2 50156  53.2135 183.7321 0001398 107.5848 252.5297 15.08839642 69347,6917.881,95.438,540.714,538.779,0.0
50156.0,STARLINK-3317,PAYLOAD,2023-02-25 19:40:55,15.0884909,0.0001362,53.2141,182.5431,101.7191,258.3954,0.0014043,0.00022138,0.0,0 STARLINK-3317,1 50156U 21125A   23056.82008741  .00022138  00000-0  14043-2 0  9994,2 50156  53.2141 182.5431 0001362 101.7191 258.3954 15.08849090 69387,6917.853,95.437,540.66,538.775,0.0
50156.0,STARLINK-3317,PAYLOAD,2023-02-26 11:34:46,15.08863512,0.0001275,53.2142,179.569,101.4856,258.6279,0.0011878,0.00018679,0.0,0 STARLINK-3317,1 50156U 21125A   23057.48248227  .00018679  00000-0  11878-2 0  9990,2 50156  53.2142 179.5690 0001275 101.4856 258.6279 15.08863512 69488,6917.809,95.436,540.556,538.792,0.0
50156.0,STARLINK-3317,PAYLOAD,2023-02-26 19:31:41,15.08881191,0.0001365,53.2143,178.0815,102.6673,257.4471,0.0012404,0.0001953,0.0,0 STARLINK-3317,1 50156U 21125A   23057.81367313  .00019530  00000-0  12404-2 0  9998,2 50156  53.2143 178.0815 0001365 102.6673 257.4471 15.08881191 69015,6917.754,95.435,540.564,538.675,0.0
50156.0,STARLINK-3317,PAYLOAD,2023-02-27 13:00:56,15.0888216,0.000124,53.2144,174.8111,94.2711,265.8423,0.0022353,0.00035507,0.0,0 STARLINK-3317,1 50156U 21125A   23058.54231629  .00035507  00000-0  22353-2 0  9995,2 50156  53.2144 174.8111 0001240  94.2711 265.8423 15.08882160 69129,6917.752,95.435,540.474,538.759,0.0
50156.0,STARLINK-3317,PAYLOAD,2023-02-27 19:22:28,15.088998,0.0001221,53.2138,173.6213,106.9077,253.2049,0.0037031,0.00059239,0.0,0 STARLINK-3317,1 50156U 21125A   23058.80726996  .00059239  00000-0  37031-2 0  9997,2 50156  53.2138 173.6213 0001221 106.9077 253.2049 15.08899800 69682,6917.698,95.434,540.407,538.718,0.0
50156.0,STARLINK-3317,PAYLOAD,2023-02-28 00:08:37,15.08872465,0.0001364,53.2144,172.729,102.406,257.7085,0.0010477,0.0001644,0.0,0 STARLINK-3317,1 50156U 21125A   23059.00598958  .00016440  00000-0  10477-2 0  9997,2 50156  53.2144 172.7290 0001364 102.4060 257.7085 15.08872465 69198,6917.781,95.436,540.59,538.703,0.0
50156.0,STARLINK-3317,PAYLOAD,2023-02-28 12:51:42,15.08863068,0.0001112,53.2144,170.3493,96.933,263.1788,0.0010247,0.00016068,0.0,0 STARLINK-3317,1 50156U 21125A   23059.53590595  .00016068  00000-0  10247-2 0  9995,2 50156  53.2144 170.3493 0001112  96.9330 263.1788 15.08863068 69791,6917.81,95.436,540.444,538.906,0.0
50156.0,STARLINK-3317,PAYLOAD,2023-02-28 14:27:05,15.088639,0.0001061,53.2143,170.0518,101.9711,258.14,0.0017421,0.00027564,0.0,0 STARLINK-3317,1 50156U 21125A   23059.60214560  .00027564  00000-0  17421-2 0  9992,2 50156  53.2143 170.0518 0001061 101.9711 258.1400 15.08863900 69282,6917.807,95.436,540.406,538.938,0.0
50156.0,STARLINK-3317,PAYLOAD,2023-02-28 17:37:51,15.08875582,0.0001023,53.2143,169.457,93.7444,266.3665,0.0021748,0.00034528,0.0,0 STARLINK-3317,1 50156U 21125A   23059.73462284  .00034528  00000-0  21748-2 0  9999,2 50156  53.2143 169.4570 0001023  93.7444 266.3665 15.08875582 69824,6917.772,95.435,540.344,538.929,0.0
50156.0,STARLINK-3317,PAYLOAD,2023-03-01 11:07:03,15.08937869,0.0001027,53.2132,166.1872,86.4928,273.6182,0.0025002,0.00039835,0.0,0 STARLINK-3317,1 50156U 21125A   23060.46322930  .00039835  00000-0  25002-2 0  9997,2 50156  53.2132 166.1872 0001027  86.4928 273.6182 15.08937869 69418,6917.581,95.431,540.157,538.736,0.0
50156.0,STARLINK-3317,PAYLOAD,2023-03-01 19:03:58,15.08882579,0.0001161,53.2135,164.6986,87.5442,272.5683,-0.00068057,-0.00011115,0.0,0 STARLINK-3317,1 50156U 21125A   23060.79442349 -.00011115  00000-0 -68057-3 0  9991,2 50156  53.2135 164.6986 0001161  87.5442 272.5683 15.08882579 69985,6917.75,95.435,540.418,538.812,0.0
50156.0,STARLINK-3317,PAYLOAD,2023-03-01 23:50:08,15.08807062,0.0001473,53.2139,163.8084,85.0395,275.0765,-0.0034316,-0.0005444,0.0,0 STARLINK-3317,1 50156U 21125A   23060.99315295 -.00054440  00000-0 -34316-2 0  9990,2 50156  53.2139 163.8084 0001473  85.0395 275.0765 15.08807062 69494,6917.981,95.44,540.865,538.827,0.0
